[{"OBJECT_NAME":"STARLINK-30374","OBJECT_ID":"2023-138B","EPOCH":"2026-03-09T18:27:01.753056","MEAN_MOTION":15.27584414,"ECCENTRICITY":0.00017232,"INCLINATION":43.0014,"RA_OF_ASC_NODE":233.4579,"ARG_OF_PERICENTER":289.6871,"MEAN_ANOMALY":70.3794,"EPHEMERIS_TYPE":0,"CLASSIFICATION_TYPE":"U","NORAD_CAT_ID":57809,"ELEMENT_SET_NO":999,"REV_AT_EPOCH":13875,"BSTAR":-7.469496e-6,"MEAN_MOTION_DOT":-4.68e-6,"MEAN_MOTION_DDOT":0},{"OBJECT_NAME":"OBJECT BE","OBJECT_ID":"2025-313BE","EPOCH":"2026-03-09T16:43:59.380320","MEAN_MOTION":15.29801687,"ECCENTRICITY":0.00072083,"INCLINATION":97.3989,"RA_OF_ASC_NODE":145.3568,"ARG_OF_PERICENTER":335.3714,"MEAN_ANOMALY":24.7181,"EPHEMERIS_TYPE":0,"CLASSIFICATION_TYPE":"U","NORAD_CAT_ID":67482,"ELEMENT_SET_NO":999,"REV_AT_EPOCH":797,"BSTAR":0.0026504328,"MEAN_MOTION_DOT":0.00077178,"MEAN_MOTION_DDOT":0}]
